ONEWEB-0446             
1 51640U 22012U   26085.39915757 -.00000527  00000+0 -15471-2 0  9995
2 51640  87.8802  52.7615 0001928  78.0363 282.0980 13.10373999198488
ONEWEB-0448             
1 51641U 22012V   26085.40414372 -.00000332  00000+0 -98823-3 0  9992
2 51641  87.8800  52.7586 0001923  84.2938 275.8408 13.10379626198451
ONEWEB-0449             
1 51642U 22012W   26085.40912111 -.00000259  00000+0 -77936-3 0  9997
2 51642  87.8813  52.7376 0001418  83.2583 276.8706 13.10376347198467
ONEWEB-0451             
1 51643U 22012X   26085.36248485  .00000071  00000+0  14960-3 0  9997
2 51643  87.9184  22.2820 0001734  79.4828 280.6498 13.17650998202759
ONEWEB-0452             
1 51644U 22012Y   26085.51266456  .00000503  00000+0  12625-2 0  9998
2 51644  87.9183  22.2971 0001769  84.4839 275.6494 13.17647495202783
ONEWEB-0456             
1 51646U 22012AA  26085.41909166  .00000217  00000+0  58651-3 0  9993
2 51646  87.8821  52.7152 0001967  83.3706 276.7645 13.10376290198502
ONEWEB-0457             
1 51647U 22012AB  26085.39583492 -.00000591  00000+0 -17301-2 0  9994
2 51647  87.8801  52.7497 0001777  69.2509 290.8809 13.10373604198501
ONEWEB-0458             
1 51648U 22012AC  26085.41742651  .00000175  00000+0  46525-3 0  9999
2 51648  87.8807  52.7271 0001761  85.7622 274.3707 13.10377260198461
ONEWEB-0461             
1 51649U 22012AD  26085.45867296  .00000025  00000+0  32420-4 0  9991
2 51649  87.9187  22.2777 0001847  74.6643 285.4692 13.17649319202996
ONEWEB-0463             
1 51650U 22012AE  26085.36416697  .00000070  00000+0  14642-3 0  9993
2 51650  87.9173  22.3273 0001880  74.1305 286.0034 13.17651390202766
ONEWEB-0464             
1 51651U 22012AF  26085.41410895  .00000059  00000+0  13213-3 0  9994
2 51651  87.8806  52.7555 0001996  90.7975 269.3381 13.10376163198481
ONEWEB-0468             
1 51652U 22012AG  26085.42075209  .00000254  00000+0  69080-3 0  9992
2 51652  87.8803  52.7484 0002048  91.8402 268.2959 13.10375333198461
ONEWEB-0473             
1 51653U 22012AH  26085.40580016 -.00000393  00000+0 -11620-2 0  9990
2 51653  87.8803  52.7532 0001855  86.3790 273.7549 13.10375243198466
ONEWEB-0474             
1 51654U 22012AJ  26085.39749689 -.00000555  00000+0 -16275-2 0  9993
2 51654  87.8811  52.7313 0002007  90.4654 269.6704 13.10373442198453
ONEWEB-0475             
1 51655U 22012AK  26085.37597725 -.00000001  00000+0 -34698-4 0  9991
2 51655  87.9175  22.3167 0001871 100.1554 259.9788 13.17651496202785
ONEWEB-0490             
1 54113U 22138A   26085.11519329  .00000008  00000+0 -12202-4 0  9991
2 54113  87.9204 321.5235 0001882  85.9445 274.1902 13.19726277165878
ONEWEB-0492             
1 54114U 22138B   26085.06465233  .00000066  00000+0  13301-3 0  9993
2 54114  87.9199 321.5405 0001955  81.6894 278.4461 13.19725990165871
