[{"OBJECT_NAME":"ONEWEB-0446","OBJECT_ID":"2022-012U","EPOCH":"2026-03-26T09:34:47.214048","MEAN_MOTION":13.10373999,"ECCENTRICITY":0.0001928,"INCLINATION":87.8802,"RA_OF_ASC_NODE":52.7615,"ARG_OF_PERICENTER":78.0363,"MEAN_ANOMALY":282.098,"EPHEMERIS_TYPE":0,"CLASSIFICATION_TYPE":"U","NORAD_CAT_ID":51640,"ELEMENT_SET_NO":999,"REV_AT_EPOCH":19848,"BSTAR":-0.0015471,"MEAN_MOTION_DOT":-5.27e-6,"MEAN_MOTION_DDOT":0},{"OBJECT_NAME":"ONEWEB-0448","OBJECT_ID":"2022-012V","EPOCH":"2026-03-26T09:41:58.017408","MEAN_MOTION":13.10379626,"ECCENTRICITY":0.0001923,"INCLINATION":87.88,"RA_OF_ASC_NODE":52.7586,"ARG_OF_PERICENTER":84.2938,"MEAN_ANOMALY":275.8408,"EPHEMERIS_TYPE":0,"CLASSIFICATION_TYPE":"U","NORAD_CAT_ID":51641,"ELEMENT_SET_NO":999,"REV_AT_EPOCH":19845,"BSTAR":-0.00098823,"MEAN_MOTION_DOT":-3.32e-6,"MEAN_MOTION_DDOT":0},{"OBJECT_NAME":"ONEWEB-0449","OBJECT_ID":"2022-012W","EPOCH":"2026-03-26T09:49:08.063904","MEAN_MOTION":13.10376347,"ECCENTRICITY":0.0001418,"INCLINATION":87.8813,"RA_OF_ASC_NODE":52.7376,"ARG_OF_PERICENTER":83.2583,"MEAN_ANOMALY":276.8706,"EPHEMERIS_TYPE":0,"CLASSIFICATION_TYPE":"U","NORAD_CAT_ID":51642,"ELEMENT_SET_NO":999,"REV_AT_EPOCH":19846,"BSTAR":-0.00077936,"MEAN_MOTION_DOT":-2.59e-6,"MEAN_MOTION_DDOT":0},{"OBJECT_NAME":"ONEWEB-0451","OBJECT_ID":"2022-012X","EPOCH":"2026-03-26T08:41:58.691040","MEAN_MOTION":13.17650998,"ECCENTRICITY":0.0001734,"INCLINATION":87.9184,"RA_OF_ASC_NODE":22.282,"ARG_OF_PERICENTER":79.4828,"MEAN_ANOMALY":280.6498,"EPHEMERIS_TYPE":0,"CLASSIFICATION_TYPE":"U","NORAD_CAT_ID":51643,"ELEMENT_SET_NO":999,"REV_AT_EPOCH":20275,"BSTAR":0.0001496,"MEAN_MOTION_DOT":7.1e-7,"MEAN_MOTION_DDOT":0},{"OBJECT_NAME":"ONEWEB-0452","OBJECT_ID":"2022-012Y","EPOCH":"2026-03-26T12:18:14.217984","MEAN_MOTION":13.17647495,"ECCENTRICITY":0.0001769,"INCLINATION":87.9183,"RA_OF_ASC_NODE":22.2971,"ARG_OF_PERICENTER":84.4839,"MEAN_ANOMALY":275.6494,"EPHEMERIS_TYPE":0,"CLASSIFICATION_TYPE":"U","NORAD_CAT_ID":51644,"ELEMENT_SET_NO":999,"REV_AT_EPOCH":20278,"BSTAR":0.0012625,"MEAN_MOTION_DOT":5.03e-6,"MEAN_MOTION_DDOT":0},{"OBJECT_NAME":"ONEWEB-0456","OBJECT_ID":"2022-012AA","EPOCH":"2026-03-26T10:03:29.519424","MEAN_MOTION":13.1037629,"ECCENTRICITY":0.0001967,"INCLINATION":87.8821,"RA_OF_ASC_NODE":52.7152,"ARG_OF_PERICENTER":83.3706,"MEAN_ANOMALY":276.7645,"EPHEMERIS_TYPE":0,"CLASSIFICATION_TYPE":"U","NORAD_CAT_ID":51646,"ELEMENT_SET_NO":999,"REV_AT_EPOCH":19850,"BSTAR":0.00058651,"MEAN_MOTION_DOT":2.17e-6,"MEAN_MOTION_DDOT":0},{"OBJECT_NAME":"ONEWEB-0457","OBJECT_ID":"2022-012AB","EPOCH":"2026-03-26T09:30:00.137088","MEAN_MOTION":13.10373604,"ECCENTRICITY":0.0001777,"INCLINATION":87.8801,"RA_OF_ASC_NODE":52.7497,"ARG_OF_PERICENTER":69.2509,"MEAN_ANOMALY":290.8809,"EPHEMERIS_TYPE":0,"CLASSIFICATION_TYPE":"U","NORAD_CAT_ID":51647,"ELEMENT_SET_NO":999,"REV_AT_EPOCH":19850,"BSTAR":-0.0017301,"MEAN_MOTION_DOT":-5.91e-6,"MEAN_MOTION_DDOT":0},{"OBJECT_NAME":"ONEWEB-0458","OBJECT_ID":"2022-012AC","EPOCH":"2026-03-26T10:01:05.650464","MEAN_MOTION":13.1037726,"ECCENTRICITY":0.0001761,"INCLINATION":87.8807,"RA_OF_ASC_NODE":52.7271,"ARG_OF_PERICENTER":85.7622,"MEAN_ANOMALY":274.3707,"EPHEMERIS_TYPE":0,"CLASSIFICATION_TYPE":"U","NORAD_CAT_ID":51648,"ELEMENT_SET_NO":999,"REV_AT_EPOCH":19846,"BSTAR":0.00046525,"MEAN_MOTION_DOT":1.75e-6,"MEAN_MOTION_DDOT":0},{"OBJECT_NAME":"ONEWEB-0461","OBJECT_ID":"2022-012AD","EPOCH":"2026-03-26T11:00:29.343744","MEAN_MOTION":13.17649319,"ECCENTRICITY":0.0001847,"INCLINATION":87.9187,"RA_OF_ASC_NODE":22.2777,"ARG_OF_PERICENTER":74.6643,"MEAN_ANOMALY":285.4692,"EPHEMERIS_TYPE":0,"CLASSIFICATION_TYPE":"U","NORAD_CAT_ID":51649,"ELEMENT_SET_NO":999,"REV_AT_EPOCH":20299,"BSTAR":3.242e-5,"MEAN_MOTION_DOT":2.5e-7,"MEAN_MOTION_DDOT":0},{"OBJECT_NAME":"ONEWEB-0463","OBJECT_ID":"2022-012AE","EPOCH":"2026-03-26T08:44:24.026208","MEAN_MOTION":13.1765139,"ECCENTRICITY":0.000188,"INCLINATION":87.9173,"RA_OF_ASC_NODE":22.3273,"ARG_OF_PERICENTER":74.1305,"MEAN_ANOMALY":286.0034,"EPHEMERIS_TYPE":0,"CLASSIFICATION_TYPE":"U","NORAD_CAT_ID":51650,"ELEMENT_SET_NO":999,"REV_AT_EPOCH":20276,"BSTAR":0.00014642,"MEAN_MOTION_DOT":7.0e-7,"MEAN_MOTION_DDOT":0},{"OBJECT_NAME":"ONEWEB-0464","OBJECT_ID":"2022-012AF","EPOCH":"2026-03-26T09:56:19.013280","MEAN_MOTION":13.10376163,"ECCENTRICITY":0.0001996,"INCLINATION":87.8806,"RA_OF_ASC_NODE":52.7555,"ARG_OF_PERICENTER":90.7975,"MEAN_ANOMALY":269.3381,"EPHEMERIS_TYPE":0,"CLASSIFICATION_TYPE":"U","NORAD_CAT_ID":51651,"ELEMENT_SET_NO":999,"REV_AT_EPOCH":19848,"BSTAR":0.00013213,"MEAN_MOTION_DOT":5.9e-7,"MEAN_MOTION_DDOT":0},{"OBJECT_NAME":"ONEWEB-0468","OBJECT_ID":"2022-012AG","EPOCH":"2026-03-26T10:05:52.980576","MEAN_MOTION":13.10375333,"ECCENTRICITY":0.0002048,"INCLINATION":87.8803,"RA_OF_ASC_NODE":52.7484,"ARG_OF_PERICENTER":91.8402,"MEAN_ANOMALY":268.2959,"EPHEMERIS_TYPE":0,"CLASSIFICATION_TYPE":"U","NORAD_CAT_ID":51652,"ELEMENT_SET_NO":999,"REV_AT_EPOCH":19846,"BSTAR":0.0006908,"MEAN_MOTION_DOT":2.54e-6,"MEAN_MOTION_DDOT":0},{"OBJECT_NAME":"ONEWEB-0473","OBJECT_ID":"2022-012AH","EPOCH":"2026-03-26T09:44:21.133824","MEAN_MOTION":13.10375243,"ECCENTRICITY":0.0001855,"INCLINATION":87.8803,"RA_OF_ASC_NODE":52.7532,"ARG_OF_PERICENTER":86.379,"MEAN_ANOMALY":273.7549,"EPHEMERIS_TYPE":0,"CLASSIFICATION_TYPE":"U","NORAD_CAT_ID":51653,"ELEMENT_SET_NO":999,"REV_AT_EPOCH":19846,"BSTAR":-0.001162,"MEAN_MOTION_DOT":-3.93e-6,"MEAN_MOTION_DDOT":0},{"OBJECT_NAME":"ONEWEB-0474","OBJECT_ID":"2022-012AJ","EPOCH":"2026-03-26T09:32:23.731296","MEAN_MOTION":13.10373442,"ECCENTRICITY":0.0002007,"INCLINATION":87.8811,"RA_OF_ASC_NODE":52.7313,"ARG_OF_PERICENTER":90.4654,"MEAN_ANOMALY":269.6704,"EPHEMERIS_TYPE":0,"CLASSIFICATION_TYPE":"U","NORAD_CAT_ID":51654,"ELEMENT_SET_NO":999,"REV_AT_EPOCH":19845,"BSTAR":-0.0016275,"MEAN_MOTION_DOT":-5.55e-6,"MEAN_MOTION_DDOT":0},{"OBJECT_NAME":"ONEWEB-0475","OBJECT_ID":"2022-012AK","EPOCH":"2026-03-26T09:01:24.434400","MEAN_MOTION":13.17651496,"ECCENTRICITY":0.0001871,"INCLINATION":87.9175,"RA_OF_ASC_NODE":22.3167,"ARG_OF_PERICENTER":100.1554,"MEAN_ANOMALY":259.9788,"EPHEMERIS_TYPE":0,"CLASSIFICATION_TYPE":"U","NORAD_CAT_ID":51655,"ELEMENT_SET_NO":999,"REV_AT_EPOCH":20278,"BSTAR":-3.4698e-5,"MEAN_MOTION_DOT":-1.0e-8,"MEAN_MOTION_DDOT":0},{"OBJECT_NAME":"ONEWEB-0490","OBJECT_ID":"2022-138A","EPOCH":"2026-03-26T02:45:52.700256","MEAN_MOTION":13.19726277,"ECCENTRICITY":0.00018825,"INCLINATION":87.9204,"RA_OF_ASC_NODE":321.5235,"ARG_OF_PERICENTER":85.9445,"MEAN_ANOMALY":274.1902,"EPHEMERIS_TYPE":0,"CLASSIFICATION_TYPE":"U","NORAD_CAT_ID":54113,"ELEMENT_SET_NO":999,"REV_AT_EPOCH":16587,"BSTAR":-1.2202338e-5,"MEAN_MOTION_DOT":8.0e-8,"MEAN_MOTION_DDOT":0},{"OBJECT_NAME":"ONEWEB-0492","OBJECT_ID":"2022-138B","EPOCH":"2026-03-26T01:33:05.961312","MEAN_MOTION":13.1972599,"ECCENTRICITY":0.00019555,"INCLINATION":87.9199,"RA_OF_ASC_NODE":321.5405,"ARG_OF_PERICENTER":81.6894,"MEAN_ANOMALY":278.4461,"EPHEMERIS_TYPE":0,"CLASSIFICATION_TYPE":"U","NORAD_CAT_ID":54114,"ELEMENT_SET_NO":999,"REV_AT_EPOCH":16587,"BSTAR":0.00013300774,"MEAN_MOTION_DOT":6.6e-7,"MEAN_MOTION_DDOT":0}]
